1 08820U 76039A   03355.86572365  .00000005  00000-0  10000-3 0  9989
2 08820 109.8372 245.8594 0044301 261.3512  98.2158  6.38664624389041
